start=new Date('2022-04-21T00:00:00.000Z').valueOf();
sats=[{"ECCENTRICITY":"0.00020030","BSTAR":"0.00317850000000","EPHEMERIS_TYPE":"0","NORAD_CAT_ID":"50188","PERIOD":"95.440","FILE":"3409979","ARG_OF_PERICENTER":"42.0534","REV_AT_EPOCH":"360","INCLINATION":"53.2132","MEAN_ANOMALY":"287.7361","RA_OF_ASC_NODE":"128.2376","RCS_SIZE":"LARGE","SITE":"AFWTR","MEAN_MOTION_DOT":"0.00050614","OBJECT_ID":"2021-125AJ","SEMIMAJOR_AXIS":"6917.985","GP_ID":"201716750","ELEMENT_SET_NO":"999","EPOCH":"2022-04-20T22:00:00.999936","TIME_SYSTEM":"UTC","MEAN_MOTION_DDOT":"0.0000000000000","MEAN_ELEMENT_THEORY":"SGP4","TLE_LINE2":"2 50188  53.2132 128.2376 0002003  42.0534 287.7361 15.08805677  3602","OBJECT_NAME":"STARLINK-3275","CLASSIFICATION_TYPE":"U","COUNTRY_CODE":"US","PERIAPSIS":"538.465","CENTER_NAME":"EARTH","LAUNCH_DATE":"2021-12-18","OBJECT_TYPE":"PAYLOAD","MEAN_MOTION":"15.08805677","REF_FRAME":"TEME","APOAPSIS":"541.236","DECAY_DATE":null,"TLE_LINE1":"1 50188U 21125AJ  22110.91667824  .00050614  00000-0  31785-2 0  9994"},{"COUNTRY_CODE":"US","PERIAPSIS":"538.604","CLASSIFICATION_TYPE":"U","TLE_LINE2":"2 50189  53.2141 138.2358 0001791  57.9911 256.7907 15.08808130 21936","OBJECT_NAME":"STARLINK-3276","MEAN_ELEMENT_THEORY":"SGP4","MEAN_MOTION_DDOT":"0.0000000000000","TIME_SYSTEM":"UTC","EPOCH":"2022-04-20T22:00:00.999936","ELEMENT_SET_NO":"999","TLE_LINE1":"1 50189U 21125AK  22110.91667824  .00046303  00000-0  29109-2 0  9992","DECAY_DATE":null,"APOAPSIS":"541.082","REF_FRAME":"TEME","MEAN_MOTION":"15.08808130","OBJECT_TYPE":"PAYLOAD","LAUNCH_DATE":"2021-12-18","CENTER_NAME":"EARTH","FILE":"3409945","PERIOD":"95.440","NORAD_CAT_ID":"50189","EPHEMERIS_TYPE":"0","BSTAR":"0.00291090000000","ECCENTRICITY":"0.00017910","GP_ID":"201691502","OBJECT_ID":"2021-125AK","SEMIMAJOR_AXIS":"6917.978","SITE":"AFWTR","RCS_SIZE":"LARGE","MEAN_MOTION_DOT":"0.00046303","RA_OF_ASC_NODE":"138.2358","MEAN_ANOMALY":"256.7907","INCLINATION":"53.2141","REV_AT_EPOCH":"2193","ARG_OF_PERICENTER":"57.9911"},{"REF_FRAME":"TEME","APOAPSIS":"540.971","DECAY_DATE":null,"TLE_LINE1":"1 50190U 21125AL  22110.91667824  .00050063  00000-0  31429-2 0  9990","CENTER_NAME":"EARTH","LAUNCH_DATE":"2021-12-18","OBJECT_TYPE":"PAYLOAD","MEAN_MOTION":"15.08822300","MEAN_ELEMENT_THEORY":"SGP4","TLE_LINE2":"2 50190  53.2132 128.2364 0001693  48.8068   0.9361 15.08822300 22071","OBJECT_NAME":"STARLINK-3268","COUNTRY_CODE":"US","PERIAPSIS":"538.628","CLASSIFICATION_TYPE":"U","ELEMENT_SET_NO":"999","TIME_SYSTEM":"UTC","EPOCH":"2022-04-20T22:00:00.999936","MEAN_MOTION_DDOT":"0.0000000000000","RCS_SIZE":"LARGE","SITE":"AFWTR","MEAN_MOTION_DOT":"0.00050063","SEMIMAJOR_AXIS":"6917.934","OBJECT_ID":"2021-125AL","GP_ID":"201692002","ARG_OF_PERICENTER":"48.8068","REV_AT_EPOCH":"2207","INCLINATION":"53.2132","MEAN_ANOMALY":"0.9361","RA_OF_ASC_NODE":"128.2364","EPHEMERIS_TYPE":"0","NORAD_CAT_ID":"50190","PERIOD":"95.439","FILE":"3409945","ECCENTRICITY":"0.00016930","BSTAR":"0.00314290000000"},{"MEAN_MOTION_DDOT":"0.0000000000000","EPOCH":"2022-04-20T22:00:00.999936","TIME_SYSTEM":"UTC","ELEMENT_SET_NO":"999","TLE_LINE2":"2 50191  53.2169 148.2528 0002319  34.7816 325.0054 15.08827849  3596","OBJECT_NAME":"STARLINK-3273","PERIAPSIS":"538.178","COUNTRY_CODE":"US","CLASSIFICATION_TYPE":"U","MEAN_ELEMENT_THEORY":"SGP4","MEAN_MOTION":"15.08827849","LAUNCH_DATE":"2021-12-18","CENTER_NAME":"EARTH","OBJECT_TYPE":"PAYLOAD","TLE_LINE1":"1 50191U 21125AM  22110.91667824 -.00003551  00000-0 -20516-3 0  9999","DECAY_DATE":null,"APOAPSIS":"541.387","REF_FRAME":"TEME","BSTAR":"-0.00020516000000","ECCENTRICITY":"0.00023190","NORAD_CAT_ID":"50191","FILE":"3409979","PERIOD":"95.438","EPHEMERIS_TYPE":"0","RA_OF_ASC_NODE":"148.2528","MEAN_ANOMALY":"325.0054","INCLINATION":"53.2169","REV_AT_EPOCH":"359","ARG_OF_PERICENTER":"34.7816","GP_ID":"201716500","MEAN_MOTION_DOT":"-0.00003551","SITE":"AFWTR","RCS_SIZE":"LARGE","OBJECT_ID":"2021-125AM","SEMIMAJOR_AXIS":"6917.918"},{"NORAD_CAT_ID":"50192","PERIOD":"95.439","FILE":"3409945","EPHEMERIS_TYPE":"0","BSTAR":"0.00302360000000","ECCENTRICITY":"0.00017770","GP_ID":"201692005","MEAN_MOTION_DOT":"0.00048129","SITE":"AFWTR","RCS_SIZE":"LARGE","OBJECT_ID":"2021-125AN","SEMIMAJOR_AXIS":"6917.956","MEAN_ANOMALY":"18.8730","RA_OF_ASC_NODE":"128.2371","INCLINATION":"53.2140","REV_AT_EPOCH":"1946","ARG_OF_PERICENTER":"50.8838","OBJECT_NAME":"STARLINK-3259","TLE_LINE2":"2 50192  53.2140 128.2371 0001777  50.8838  18.8730 15.08815332 19465","COUNTRY_CODE":"US","PERIAPSIS":"538.591","CLASSIFICATION_TYPE":"U","MEAN_ELEMENT_THEORY":"SGP4","MEAN_MOTION_DDOT":"0.0000000000000","TIME_SYSTEM":"UTC","EPOCH":"2022-04-20T22:00:00.999936","ELEMENT_SET_NO":"999","TLE_LINE1":"1 50192U 21125AN  22110.91667824  .00048129  00000-0  30236-2 0  9997","DECAY_DATE":null,"REF_FRAME":"TEME","APOAPSIS":"541.050","MEAN_MOTION":"15.08815332","LAUNCH_DATE":"2021-12-18","CENTER_NAME":"EARTH","OBJECT_TYPE":"PAYLOAD"},{"GP_ID":"201714998","SITE":"AFWTR","RCS_SIZE":"LARGE","MEAN_MOTION_DOT":"0.00040082","OBJECT_ID":"2021-125AP","SEMIMAJOR_AXIS":"6917.969","INCLINATION":"53.2132","RA_OF_ASC_NODE":"128.2370","MEAN_ANOMALY":"319.5971","ARG_OF_PERICENTER":"50.1755","REV_AT_EPOCH":"360","NORAD_CAT_ID":"50193","PERIOD":"95.439","FILE":"3409979","EPHEMERIS_TYPE":"0","BSTAR":"0.00252420000000","ECCENTRICITY":"0.00019780","TLE_LINE1":"1 50193U 21125AP  22110.91667824  .00040082  00000-0  25242-2 0  9999","REF_FRAME":"TEME","APOAPSIS":"541.202","DECAY_DATE":null,"MEAN_MOTION":"15.08811124","CENTER_NAME":"EARTH","LAUNCH_DATE":"2021-12-18","OBJECT_TYPE":"PAYLOAD","TLE_LINE2":"2 50193  53.2132 128.2370 0001978  50.1755 319.5971 15.08811124  3602","OBJECT_NAME":"STARLINK-3261","PERIAPSIS":"538.465","COUNTRY_CODE":"US","CLASSIFICATION_TYPE":"U","MEAN_ELEMENT_THEORY":"SGP4","MEAN_MOTION_DDOT":"0.0000000000000","ELEMENT_SET_NO":"999","TIME_SYSTEM":"UTC","EPOCH":"2022-04-20T22:00:00.999936"},{"BSTAR":"0.00054382000000","ECCENTRICITY":"0.00018880","FILE":"3409979","PERIOD":"95.438","NORAD_CAT_ID":"50194","EPHEMERIS_TYPE":"0","MEAN_ANOMALY":"35.2361","RA_OF_ASC_NODE":"128.2366","INCLINATION":"53.2127","REV_AT_EPOCH":"360","ARG_OF_PERICENTER":"54.4812","GP_ID":"201715749","OBJECT_ID":"2021-125AQ","SEMIMAJOR_AXIS":"6917.884","SITE":"AFWTR","MEAN_MOTION_DOT":"0.00008377","RCS_SIZE":"LARGE","MEAN_MOTION_DDOT":"0.0000000000000","TIME_SYSTEM":"UTC","EPOCH":"2022-04-20T22:00:00.999936","ELEMENT_SET_NO":"999","COUNTRY_CODE":"US","PERIAPSIS":"538.443","CLASSIFICATION_TYPE":"U","TLE_LINE2":"2 50194  53.2127 128.2366 0001888  54.4812  35.2361 15.08838944  3607","OBJECT_NAME":"STARLINK-3269","MEAN_ELEMENT_THEORY":"SGP4","MEAN_MOTION":"15.08838944","OBJECT_TYPE":"PAYLOAD","LAUNCH_DATE":"2021-12-18","CENTER_NAME":"EARTH","TLE_LINE1":"1 50194U 21125AQ  22110.91667824  .00008377  00000-0  54382-3 0  9999","DECAY_DATE":null,"APOAPSIS":"541.055","REF_FRAME":"TEME"},{"REV_AT_EPOCH":"360","ARG_OF_PERICENTER":"52.7652","RA_OF_ASC_NODE":"128.2366","MEAN_ANOMALY":"337.0126","INCLINATION":"53.2132","RCS_SIZE":"LARGE","SITE":"AFWTR","MEAN_MOTION_DOT":"0.00040024","OBJECT_ID":"2021-125AR","SEMIMAJOR_AXIS":"6917.978","GP_ID":"201716000","ECCENTRICITY":"0.00016620","BSTAR":"0.00252080000000","EPHEMERIS_TYPE":"0","NORAD_CAT_ID":"50195","PERIOD":"95.440","FILE":"3409979","LAUNCH_DATE":"2021-12-18","CENTER_NAME":"EARTH","OBJECT_TYPE":"PAYLOAD","MEAN_MOTION":"15.08808010","DECAY_DATE":null,"APOAPSIS":"540.993","REF_FRAME":"TEME","TLE_LINE1":"1 50195U 21125AR  22110.91667824  .00040024  00000-0  25208-2 0  9999","TIME_SYSTEM":"UTC","EPOCH":"2022-04-20T22:00:00.999936","ELEMENT_SET_NO":"999","MEAN_MOTION_DDOT":"0.0000000000000","MEAN_ELEMENT_THEORY":"SGP4","OBJECT_NAME":"STARLINK-3266","TLE_LINE2":"2 50195  53.2132 128.2366 0001662  52.7652 337.0126 15.08808010  3600","PERIAPSIS":"538.693","COUNTRY_CODE":"US","CLASSIFICATION_TYPE":"U"},{"EPHEMERIS_TYPE":"0","PERIOD":"95.439","FILE":"3409979","NORAD_CAT_ID":"50196","ECCENTRICITY":"0.00019420","BSTAR":"0.00139960000000","OBJECT_ID":"2021-125AS","SEMIMAJOR_AXIS":"6917.932","MEAN_MOTION_DOT":"0.00022047","SITE":"AFWTR","RCS_SIZE":"LARGE","GP_ID":"201716751","ARG_OF_PERICENTER":"40.6079","REV_AT_EPOCH":"360","INCLINATION":"53.2154","MEAN_ANOMALY":"89.1815","RA_OF_ASC_NODE":"128.2256","MEAN_ELEMENT_THEORY":"SGP4","COUNTRY_CODE":"US","PERIAPSIS":"538.454","CLASSIFICATION_TYPE":"U","TLE_LINE2":"2 50196  53.2154 128.2256 0001942  40.6079  89.1815 15.08823075  3601","OBJECT_NAME":"STARLINK-3263","ELEMENT_SET_NO":"999","TIME_SYSTEM":"UTC","EPOCH":"2022-04-20T22:00:00.999936","MEAN_MOTION_DDOT":"0.0000000000000","REF_FRAME":"TEME","APOAPSIS":"541.141","DECAY_DATE":null,"TLE_LINE1":"1 50196U 21125AS  22110.91667824  .00022047  00000-0  13996-2 0  9996","OBJECT_TYPE":"PAYLOAD","CENTER_NAME":"EARTH","LAUNCH_DATE":"2021-12-18","MEAN_MOTION":"15.08823075"},{"REV_AT_EPOCH":"360","ARG_OF_PERICENTER":"50.2502","MEAN_ANOMALY":"59.5199","RA_OF_ASC_NODE":"128.2250","INCLINATION":"53.2152","SEMIMAJOR_AXIS":"6917.967","OBJECT_ID":"2021-125AT","SITE":"AFWTR","MEAN_MOTION_DOT":"0.00035595","RCS_SIZE":"LARGE","GP_ID":"201715499","ECCENTRICITY":"0.00019100","BSTAR":"0.00224500000000","EPHEMERIS_TYPE":"0","PERIOD":"95.439","FILE":"3409979","NORAD_CAT_ID":"50197","OBJECT_TYPE":"PAYLOAD","LAUNCH_DATE":"2021-12-18","CENTER_NAME":"EARTH","MEAN_MOTION":"15.08811711","DECAY_DATE":null,"APOAPSIS":"541.153","REF_FRAME":"TEME","TLE_LINE1":"1 50197U 21125AT  22110.91667824  .00035595  00000-0  22450-2 0  9994","EPOCH":"2022-04-20T22:00:00.999936","TIME_SYSTEM":"UTC","ELEMENT_SET_NO":"999","MEAN_MOTION_DDOT":"0.0000000000000","MEAN_ELEMENT_THEORY":"SGP4","COUNTRY_CODE":"US","PERIAPSIS":"538.511","CLASSIFICATION_TYPE":"U","OBJECT_NAME":"STARLINK-3267","TLE_LINE2":"2 50197  53.2152 128.2250 0001910  50.2502  59.5199 15.08811711  3607"}];
